0 RADIO 7
1 13001U 81120E   13281.81459743  .00000081  00000-0  79207-3 0  6751
2 13001 082.9625 040.1796 0023745 227.1545 247.4667 12.08876659403693
0 RADIO 7
1 13001U 81120E   13284.11770313  .00000011  00000-0  23564-4 0  6766
2 13001 082.9631 038.9192 0023826 222.3163 190.5582 12.08877488403974
0 RADIO 7
1 13001U 81120E   13286.11845036 -.00000029  00000-0 -42222-3 0  6776
2 13001 082.9635 037.8245 0023882 218.0748 257.8326 12.08877820404219
0 RADIO 7
1 13001U 81120E   13288.42457696 -.00000061  00000-0 -77911-3 0  6783
2 13001 082.9637 036.5628 0023976 213.3186 213.9910 12.08877818404499
0 RADIO 7
1 13001U 81120E   13290.50534654 -.00000074  00000-0 -93134-3 0  6795
2 13001 082.9636 035.4245 0024055 209.0051 269.4285 12.08877659404745
0 RADIO 7
1 13001U 81120E   13292.82295149 -.00000086  00000-0 -10549-2 0  6808
2 13001 082.9633 034.1565 0024131 204.1363 275.6279 12.08877500405029
0 RADIO 7
1 13001U 81120E   13295.20231326 -.00000092  00000-0 -11235-2 0  6811
2 13001 082.9632 032.8545 0024221 199.2151 190.5138 12.08877087405311
